{"fetched_at":"2026-03-29T02:12:04Z","count":15717,"tles":[{"name":"YAMAL 401","line1":"1 40345U 14082A   26086.56426551 -.00000247  00000+0  00000+0 0  9999","line2":"2 40345   0.0038 157.9388 0000372  86.2381 233.8925  1.00270306 41107","category":"Other"}]}